NORAD_CAT_ID,OBJECT_NAME,OBJECT_TYPE,EPOCH,MEAN_MOTION,ECCENTRICITY,INCLINATION,RA_OF_ASC_NODE,ARG_OF_PERICENTER,MEAN_ANOMALY,BSTAR,MEAN_MOTION_DOT,MEAN_MOTION_DDOT,TLE_LINE0,TLE_LINE1,TLE_LINE2,SEMIMAJOR_AXIS,PERIOD,APOGEE,PERIGEE,DECAYED
56815.0,STARLINK-6057,PAYLOAD,2024-05-03 18:33:35,14.98339346,0.000296,70.0006,246.2862,271.8981,88.1839,8.378e-05,9.07e-06,0.0,0 STARLINK-6057,1 56815U 23078BA  24124.77332441  .00000907  00000-0  83780-4 0  9995,2 56815  70.0006 246.2862 0002960 271.8981  88.1839 14.98339346 51589,6950.164,96.106,574.086,569.972,0.0
56815.0,STARLINK-6057,PAYLOAD,2024-05-04 12:11:05,14.98320459,0.0003048,70.0003,244.4347,270.5,89.581,-6.6899e-05,-8.91e-06,0.0,0 STARLINK-6057,1 56815U 23078BA  24125.50770133 -.00000891  00000-0 -66899-4 0  9997,2 56815  70.0003 244.4347 0003048 270.5000  89.5810 14.98320459 51950,6950.222,96.108,574.206,569.969,0.0
56815.0,STARLINK-6057,PAYLOAD,2024-05-05 12:13:05,14.98332933,0.0002882,70.0008,241.9101,266.8999,93.183,-4.9576e-05,-6.84e-06,0.0,0 STARLINK-6057,1 56815U 23078BA  24126.50909602 -.00000684  00000-0 -49576-4 0  9996,2 56815  70.0008 241.9101 0002882 266.8999  93.1830 14.98332933 52106,6950.184,96.107,574.052,570.046,0.0
56815.0,STARLINK-6057,PAYLOAD,2024-05-05 13:49:13,14.98332852,0.0002883,70.0008,241.7418,266.9185,93.1644,-4.8154e-05,-6.68e-06,0.0,0 STARLINK-6057,1 56815U 23078BA  24126.57585598 -.00000668  00000-0 -48154-4 0  9990,2 56815  70.0008 241.7418 0002883 266.9185  93.1644 14.98332852 51858,6950.184,96.107,574.053,570.045,0.0
56815.0,STARLINK-6057,PAYLOAD,2024-05-05 17:01:29,14.98334635,0.0002989,70.0005,241.4049,267.255,92.8267,-4.8908e-06,-1.51e-06,0.0,0 STARLINK-6057,1 56815U 23078BA  24126.70937339 -.00000151  00000-0 -48908-5 0  9994,2 56815  70.0005 241.4049 0002989 267.2550  92.8267 14.98334635 51879,6950.179,96.107,574.121,569.966,0.0
56815.0,STARLINK-6057,PAYLOAD,2024-05-06 12:15:06,14.98328592,0.0003084,70.0001,239.385,269.7312,90.3494,0.00015586,1.767e-05,0.0,0 STARLINK-6057,1 56815U 23078BA  24127.51049290  .00001767  00000-0  15586-3 0  9990,2 56815  70.0001 239.3850 0003084 269.7312  90.3494 14.98328592 52254,6950.197,96.107,574.206,569.919,0.0
56815.0,STARLINK-6057,PAYLOAD,2024-05-06 13:51:14,14.98332541,0.0003075,70.0001,239.2167,269.7291,90.3516,0.00019525,2.238e-05,0.0,0 STARLINK-6057,1 56815U 23078BA  24127.57724927  .00002238  00000-0  19525-3 0  9994,2 56815  70.0001 239.2167 0003075 269.7291  90.3516 14.98332541 52007,6950.185,96.107,574.187,569.913,0.0
56815.0,STARLINK-6057,PAYLOAD,2024-05-06 17:03:30,14.98336067,0.000302,70.0002,238.8802,270.1657,89.9156,0.00022662,2.612e-05,0.0,0 STARLINK-6057,1 56815U 23078BA  24127.71076605  .00002612  00000-0  22662-3 0  9995,2 56815  70.0002 238.8802 0003020 270.1657  89.9156 14.98336067 52282,6950.174,96.107,574.138,569.94,0.0
56815.0,STARLINK-6057,PAYLOAD,2024-05-07 01:04:11,14.98322924,0.0002877,70.0005,238.0385,277.8526,82.2306,0.00015195,1.72e-05,0.0,0 STARLINK-6057,1 56815U 23078BA  24128.04457706  .00001720  00000-0  15195-3 0  9999,2 56815  70.0005 238.0385 0002877 277.8526  82.2306 14.98322924 52337,6950.215,96.107,574.079,570.08,0.0
56815.0,STARLINK-6057,PAYLOAD,2024-05-07 13:53:15,14.98334028,0.0002529,70.0014,236.6917,263.4238,96.6633,-5.6455e-05,-7.67e-06,0.0,0 STARLINK-6057,1 56815U 23078BA  24128.57865538 -.00000767  00000-0 -56455-4 0  9990,2 56815  70.0014 236.6917 0002529 263.4238  96.6633 14.98334028 52157,6950.18,96.107,573.803,570.288,0.0
56815.0,STARLINK-6057,PAYLOAD,2024-05-07 17:05:31,14.98330545,0.0002781,70.0009,236.3553,266.6208,93.4633,3.9641e-06,-4.6e-07,0.0,0 STARLINK-6057,1 56815U 23078BA  24128.71217576 -.00000046  00000-0  39641-5 0  9997,2 56815  70.0009 236.3553 0002781 266.6208  93.4633 14.98330545 52173,6950.191,96.107,573.989,570.123,0.0
56815.0,STARLINK-6057,PAYLOAD,2024-05-08 12:19:08,14.98329893,0.0002857,70.0008,234.3359,270.1954,89.8878,-6.3274e-05,-8.48e-06,0.0,0 STARLINK-6057,1 56815U 23078BA  24129.51329754 -.00000848  00000-0 -63274-4 0  9997,2 56815  70.0008 234.3359 0002857 270.1954  89.8878 14.98329893 52552,6950.193,96.107,574.044,570.073,0.0
56815.0,STARLINK-6057,PAYLOAD,2024-05-08 13:55:16,14.98333994,0.0002879,70.0008,234.1697,268.6172,91.4657,-6.7516e-05,-8.99e-06,0.0,0 STARLINK-6057,1 56815U 23078BA  24129.58005477 -.00000899  00000-0 -67516-4 0  9996,2 56815  70.0008 234.1697 0002879 268.6172  91.4657 14.98333994 52307,6950.181,96.107,574.046,570.045,0.0
56815.0,STARLINK-6057,PAYLOAD,2024-05-08 17:07:32,14.98335624,0.0002852,70.0008,233.8327,268.8341,91.2491,-4.4283e-05,-6.21e-06,0.0,0 STARLINK-6057,1 56815U 23078BA  24129.71357283 -.00000621  00000-0 -44283-4 0  9995,2 56815  70.0008 233.8327 0002852 268.8341  91.2491 14.98335624 52322,6950.175,96.107,574.023,570.058,0.0
56815.0,STARLINK-6057,PAYLOAD,2024-05-09 13:57:17,14.9833329,0.0002935,70.0008,231.644,270.5022,89.5801,8.9776e-05,9.78e-06,0.0,0 STARLINK-6057,1 56815U 23078BA  24130.58144994  .00000978  00000-0  89776-4 0  9994,2 56815  70.0008 231.6440 0002935 270.5022  89.5801 14.98333290 52458,6950.183,96.107,574.088,570.008,0.0
56815.0,STARLINK-6057,PAYLOAD,2024-05-09 17:09:33,14.98335933,0.0002813,70.0012,231.308,267.8002,92.2835,0.00012791,1.434e-05,0.0,0 STARLINK-6057,1 56815U 23078BA  24130.71496682  .00001434  00000-0  12791-3 0  9993,2 56815  70.0012 231.3080 0002813 267.8002  92.2835 14.98335933 52737,6950.175,96.107,573.995,570.084,0.0
56815.0,STARLINK-6057,PAYLOAD,2024-05-10 12:23:10,14.98323929,0.0002665,70.0019,229.2875,270.0088,90.0766,4.0485e-05,3.9e-06,0.0,0 STARLINK-6057,1 56815U 23078BA  24131.51609709  .00000390  00000-0  40485-4 0  9990,2 56815  70.0019 229.2875 0002665 270.0088  90.0766 14.98323929 52851,6950.212,96.107,573.929,570.224,0.0
56815.0,STARLINK-6057,PAYLOAD,2024-05-10 13:59:18,14.98323401,0.0002736,70.0017,229.1193,268.5185,91.5661,3.6162e-05,3.38e-06,0.0,0 STARLINK-6057,1 56815U 23078BA  24131.58285768  .00000338  00000-0  36162-4 0  9991,2 56815  70.0017 229.1193 0002736 268.5185  91.5661 14.98323401 52608,6950.213,96.107,573.98,570.177,0.0
56815.0,STARLINK-6057,PAYLOAD,2024-05-10 15:35:26,14.98324783,0.0002584,70.0018,228.9511,266.8851,93.2013,2.1721e-05,1.66e-06,0.0,0 STARLINK-6057,1 56815U 23078BA  24131.64961741  .00000166  00000-0  21721-4 0  9994,2 56815  70.0018 228.9511 0002584 266.8851  93.2013 14.98324783 52617,6950.209,96.107,573.87,570.278,0.0
56815.0,STARLINK-6057,PAYLOAD,2024-05-11 12:25:08,14.98368358,0.0002538,70.0018,226.7626,266.7093,93.3776,0.00035127,4.105e-05,0.0,0 STARLINK-6057,1 56815U 23078BA  24132.51745373  .00004105  00000-0  35127-3 0  9993,2 56815  70.0018 226.7626 0002538 266.7093  93.3776 14.98368358 53003,6950.074,96.105,573.703,570.175,0.0
56815.0,STARLINK-6057,PAYLOAD,2024-05-11 15:37:29,14.98297379,0.0002153,70.002,226.4266,282.033,78.0588,-0.00044596,-5.405e-05,0.0,0 STARLINK-6057,1 56815U 23078BA  24132.65103590 -.00005405  00000-0 -44596-3 0  9993,2 56815  70.0020 226.4266 0002153 282.0330  78.0588 14.98297379 53028,6950.294,96.109,573.655,570.662,0.0
56815.0,STARLINK-6057,PAYLOAD,2024-05-11 23:38:07,14.98327217,0.0003118,70.0015,225.5836,264.4236,95.6568,-0.00018898,-2.347e-05,0.0,0 STARLINK-6057,1 56815U 23078BA  24132.98480778 -.00002347  00000-0 -18898-3 0  9993,2 56815  70.0015 225.5836 0003118 264.4236  95.6568 14.98327217 53079,6950.201,96.107,574.234,569.899,0.0
56815.0,STARLINK-6057,PAYLOAD,2024-05-12 12:27:19,14.98242847,0.00031,69.9999,224.2361,271.7141,88.3663,-0.00093275,-0.0001118,0.0,0 STARLINK-6057,1 56815U 23078BA  24133.51897150 -.00011180  00000-0 -93275-3 0  9996,2 56815  69.9999 224.2361 0003100 271.7141  88.3663 14.98242847 53152,6950.462,96.113,574.482,570.173,0.0
56815.0,STARLINK-6057,PAYLOAD,2024-05-12 14:03:20,14.98326855,0.0003421,69.9998,224.0674,267.1018,92.975,1.5459e-05,9.1e-07,0.0,0 STARLINK-6057,1 56815U 23078BA  24133.58565888  .00000091  00000-0  15459-4 0  9999,2 56815  69.9998 224.0674 0003421 267.1018  92.9750 14.98326855 52906,6950.203,96.107,574.445,569.69,0.0
56815.0,STARLINK-6057,PAYLOAD,2024-05-12 15:39:29,14.98320818,0.0003027,70.001,223.9016,267.1576,92.9237,-8.2094e-06,-1.91e-06,0.0,0 STARLINK-6057,1 56815U 23078BA  24133.65242449 -.00000191  00000-0 -82094-5 0  9995,2 56815  70.0010 223.9016 0003027 267.1576  92.9237 14.98320818 53176,6950.221,96.108,574.19,569.982,0.0
56815.0,STARLINK-6057,PAYLOAD,2024-05-12 23:40:09,14.98329657,0.0003379,70.0005,223.0574,268.4935,91.5837,-8.061e-05,-1.055e-05,0.0,0 STARLINK-6057,1 56815U 23078BA  24133.98622110 -.00001055  00000-0 -80610-4 0  9999,2 56815  70.0005 223.0574 0003379 268.4935  91.5837 14.98329657 53220,6950.194,96.107,574.407,569.71,0.0
56815.0,STARLINK-6057,PAYLOAD,2024-05-13 12:29:13,14.9834462,0.0003239,70.0005,221.7122,268.8668,91.212,-0.0002114,-2.615e-05,0.0,0 STARLINK-6057,1 56815U 23078BA  24134.52029533 -.00002615  00000-0 -21140-3 0  9995,2 56815  70.0005 221.7122 0003239 268.8668  91.2120 14.98344620 53304,6950.148,96.106,574.264,569.762,0.0
56815.0,STARLINK-6057,PAYLOAD,2024-05-13 15:41:29,14.98344836,0.0003233,70.0005,221.3755,269.4885,90.5904,-0.00018952,-2.355e-05,0.0,0 STARLINK-6057,1 56815U 23078BA  24134.65381409 -.00002355  00000-0 -18952-3 0  9990,2 56815  70.0005 221.3755 0003233 269.4885  90.5904 14.98344836 53068,6950.147,96.106,574.259,569.765,0.0
56815.0,STARLINK-6057,PAYLOAD,2024-05-14 12:31:14,14.98296593,0.0003246,70.0003,219.1876,270.785,89.2937,0.0010452,0.0001239,0.0,0 STARLINK-6057,1 56815U 23078BA  24135.52169875  .00012390  00000-0  10452-2 0  9992,2 56815  70.0003 219.1876 0003246 270.7850  89.2937 14.98296593 53456,6950.296,96.109,574.417,569.905,0.0
56815.0,STARLINK-6057,PAYLOAD,2024-05-15 04:32:35,14.98337738,0.0003463,70.0003,217.5045,269.1944,90.8818,6.8853e-05,7.29e-06,0.0,0 STARLINK-6057,1 56815U 23078BA  24136.18929826  .00000729  00000-0  68853-4 0  9998,2 56815  70.0003 217.5045 0003463 269.1944  90.8818 14.98337738 53557,6950.169,96.107,574.441,569.627,0.0
